[{"OBJECT_NAME":"OBJECT A","OBJECT_ID":"2024-203A","EPOCH":"2026-03-09T23:31:20.812800","MEAN_MOTION":15.27300571,"ECCENTRICITY":0.00108989,"INCLINATION":97.4288,"RA_OF_ASC_NODE":139.5608,"ARG_OF_PERICENTER":322.6893,"MEAN_ANOMALY":37.3588,"EPHEMERIS_TYPE":0,"CLASSIFICATION_TYPE":"U","NORAD_CAT_ID":61869,"ELEMENT_SET_NO":999,"REV_AT_EPOCH":7380,"BSTAR":0.00061472876,"MEAN_MOTION_DOT":0.00016411,"MEAN_MOTION_DDOT":0},{"OBJECT_NAME":"STARLINK-32632","OBJECT_ID":"2024-231V","EPOCH":"2026-03-09T17:36:02.143296","MEAN_MOTION":15.30197486,"ECCENTRICITY":0.00010508,"INCLINATION":53.1599,"RA_OF_ASC_NODE":219.5259,"ARG_OF_PERICENTER":72.783,"MEAN_ANOMALY":287.3285,"EPHEMERIS_TYPE":0,"CLASSIFICATION_TYPE":"U","NORAD_CAT_ID":62262,"ELEMENT_SET_NO":999,"REV_AT_EPOCH":7177,"BSTAR":0.0012252564,"MEAN_MOTION_DOT":0.00036103,"MEAN_MOTION_DDOT":0}]
